<?xml version="1.0" encoding="UTF-8"?>
<ndm xmlns:xsi="http://www.w3.org/2001/XMLSchema-instance" xsi:noNamespaceSchemaLocation="https://sanaregistry.org/r/ndmxml_unqualified/ndmxml-2.0.0-master-2.0.xsd">
<omm id="CCSDS_OMM_VERS" version="2.0">
<header><CREATION_DATE/><ORIGINATOR/></header><body><segment><metadata><OBJECT_NAME>GLOBALSTAR M057</OBJECT_NAME><OBJECT_ID>1999-058A</OBJECT_ID><CENTER_NAME>EARTH</CENTER_NAME><REF_FRAME>TEME</REF_FRAME><TIME_SYSTEM>UTC</TIME_SYSTEM><MEAN_ELEMENT_THEORY>SGP4</MEAN_ELEMENT_THEORY></metadata><data><meanElements><EPOCH>2024-08-06T12:25:44.298912</EPOCH><MEAN_MOTION>12.24790803</MEAN_MOTION><ECCENTRICITY>.0002499</ECCENTRICITY><INCLINATION>51.9969</INCLINATION><RA_OF_ASC_NODE>161.2090</RA_OF_ASC_NODE><ARG_OF_PERICENTER>77.5645</ARG_OF_PERICENTER><MEAN_ANOMALY>282.5484</MEAN_ANOMALY></meanElements><tleParameters><EPHEMERIS_TYPE>0</EPHEMERIS_TYPE><CLASSIFICATION_TYPE>U</CLASSIFICATION_TYPE><NORAD_CAT_ID>25943</NORAD_CAT_ID><ELEMENT_SET_NO>999</ELEMENT_SET_NO><REV_AT_EPOCH>12837</REV_AT_EPOCH><BSTAR>.55616E-4</BSTAR><MEAN_MOTION_DOT>-.87E-6</MEAN_MOTION_DOT><MEAN_MOTION_DDOT>0</MEAN_MOTION_DDOT></tleParameters></data></segment></body></omm>
<omm id="CCSDS_OMM_VERS" version="2.0">
<header><CREATION_DATE/><ORIGINATOR/></header><body><segment><metadata><OBJECT_NAME>GLOBALSTAR M059</OBJECT_NAME><OBJECT_ID>1999-058B</OBJECT_ID><CENTER_NAME>EARTH</CENTER_NAME><REF_FRAME>TEME</REF_FRAME><TIME_SYSTEM>UTC</TIME_SYSTEM><MEAN_ELEMENT_THEORY>SGP4</MEAN_ELEMENT_THEORY></metadata><data><meanElements><EPOCH>2024-08-06T15:10:35.911776</EPOCH><MEAN_MOTION>11.99965123</MEAN_MOTION><ECCENTRICITY>.0000889</ECCENTRICITY><INCLINATION>52.0046</INCLINATION><RA_OF_ASC_NODE>338.1360</RA_OF_ASC_NODE><ARG_OF_PERICENTER>91.0055</ARG_OF_PERICENTER><MEAN_ANOMALY>282.3701</MEAN_ANOMALY></meanElements><tleParameters><EPHEMERIS_TYPE>0</EPHEMERIS_TYPE><CLASSIFICATION_TYPE>U</CLASSIFICATION_TYPE><NORAD_CAT_ID>25944</NORAD_CAT_ID><ELEMENT_SET_NO>999</ELEMENT_SET_NO><REV_AT_EPOCH>53628</REV_AT_EPOCH><BSTAR>-.63114E-3</BSTAR><MEAN_MOTION_DOT>-.137E-5</MEAN_MOTION_DOT><MEAN_MOTION_DDOT>0</MEAN_MOTION_DDOT></tleParameters></data></segment></body></omm>
<omm id="CCSDS_OMM_VERS" version="2.0">
<header><CREATION_DATE/><ORIGINATOR/></header><body><segment><metadata><OBJECT_NAME>GLOBALSTAR M031</OBJECT_NAME><OBJECT_ID>1999-058D</OBJECT_ID><CENTER_NAME>EARTH</CENTER_NAME><REF_FRAME>TEME</REF_FRAME><TIME_SYSTEM>UTC</TIME_SYSTEM><MEAN_ELEMENT_THEORY>SGP4</MEAN_ELEMENT_THEORY></metadata><data><meanElements><EPOCH>2024-08-06T14:56:54.356640</EPOCH><MEAN_MOTION>12.16012999</MEAN_MOTION><ECCENTRICITY>.000142</ECCENTRICITY><INCLINATION>51.9944</INCLINATION><RA_OF_ASC_NODE>259.3579</RA_OF_ASC_NODE><ARG_OF_PERICENTER>248.9964</ARG_OF_PERICENTER><MEAN_ANOMALY>287.3213</MEAN_ANOMALY></meanElements><tleParameters><EPHEMERIS_TYPE>0</EPHEMERIS_TYPE><CLASSIFICATION_TYPE>U</CLASSIFICATION_TYPE><NORAD_CAT_ID>25946</NORAD_CAT_ID><ELEMENT_SET_NO>999</ELEMENT_SET_NO><REV_AT_EPOCH>12627</REV_AT_EPOCH><BSTAR>.14971E-2</BSTAR><MEAN_MOTION_DOT>.57E-6</MEAN_MOTION_DOT><MEAN_MOTION_DDOT>0</MEAN_MOTION_DDOT></tleParameters></data></segment></body></omm>
<omm id="CCSDS_OMM_VERS" version="2.0">
<header><CREATION_DATE/><ORIGINATOR/></header><body><segment><metadata><OBJECT_NAME>GLOBALSTAR M039</OBJECT_NAME><OBJECT_ID>1999-062A</OBJECT_ID><CENTER_NAME>EARTH</CENTER_NAME><REF_FRAME>TEME</REF_FRAME><TIME_SYSTEM>UTC</TIME_SYSTEM><MEAN_ELEMENT_THEORY>SGP4</MEAN_ELEMENT_THEORY></metadata><data><meanElements><EPOCH>2024-08-06T11:59:36.525120</EPOCH><MEAN_MOTION>12.62298786</MEAN_MOTION><ECCENTRICITY>.0003195</ECCENTRICITY><INCLINATION>51.9838</INCLINATION><RA_OF_ASC_NODE>147.1726</RA_OF_ASC_NODE><ARG_OF_PERICENTER>14.5460</ARG_OF_PERICENTER><MEAN_ANOMALY>345.5498</MEAN_ANOMALY></meanElements><tleParameters><EPHEMERIS_TYPE>0</EPHEMERIS_TYPE><CLASSIFICATION_TYPE>U</CLASSIFICATION_TYPE><NORAD_CAT_ID>25961</NORAD_CAT_ID><ELEMENT_SET_NO>999</ELEMENT_SET_NO><REV_AT_EPOCH>14047</REV_AT_EPOCH><BSTAR>.21298E-3</BSTAR><MEAN_MOTION_DOT>-.66E-6</MEAN_MOTION_DOT><MEAN_MOTION_DDOT>0</MEAN_MOTION_DDOT></tleParameters></data></segment></body></omm>
<omm id="CCSDS_OMM_VERS" version="2.0">
<header><CREATION_DATE/><ORIGINATOR/></header><body><segment><metadata><OBJECT_NAME>GLOBALSTAR M034</OBJECT_NAME><OBJECT_ID>1999-062B</OBJECT_ID><CENTER_NAME>EARTH</CENTER_NAME><REF_FRAME>TEME</REF_FRAME><TIME_SYSTEM>UTC</TIME_SYSTEM><MEAN_ELEMENT_THEORY>SGP4</MEAN_ELEMENT_THEORY></metadata><data><meanElements><EPOCH>2024-08-06T05:08:42.737856</EPOCH><MEAN_MOTION>11.79430555</MEAN_MOTION><ECCENTRICITY>.001361</ECCENTRICITY><INCLINATION>51.9870</INCLINATION><RA_OF_ASC_NODE>110.1246</RA_OF_ASC_NODE><ARG_OF_PERICENTER>164.0873</ARG_OF_PERICENTER><MEAN_ANOMALY>345.4334</MEAN_ANOMALY></meanElements><tleParameters><EPHEMERIS_TYPE>0</EPHEMERIS_TYPE><CLASSIFICATION_TYPE>U</CLASSIFICATION_TYPE><NORAD_CAT_ID>25962</NORAD_CAT_ID><ELEMENT_SET_NO>999</ELEMENT_SET_NO><REV_AT_EPOCH>10122</REV_AT_EPOCH><BSTAR>.16936E-2</BSTAR><MEAN_MOTION_DOT>.26E-6</MEAN_MOTION_DOT><MEAN_MOTION_DDOT>0</MEAN_MOTION_DDOT></tleParameters></data></segment></body></omm>
<omm id="CCSDS_OMM_VERS" version="2.0">
<header><CREATION_DATE/><ORIGINATOR/></header><body><segment><metadata><OBJECT_NAME>GLOBALSTAR M029</OBJECT_NAME><OBJECT_ID>1999-062C</OBJECT_ID><CENTER_NAME>EARTH</CENTER_NAME><REF_FRAME>TEME</REF_FRAME><TIME_SYSTEM>UTC</TIME_SYSTEM><MEAN_ELEMENT_THEORY>SGP4</MEAN_ELEMENT_THEORY></metadata><data><meanElements><EPOCH>2024-08-06T09:35:32.700192</EPOCH><MEAN_MOTION>11.99881466</MEAN_MOTION><ECCENTRICITY>.0002638</ECCENTRICITY><INCLINATION>51.9770</INCLINATION><RA_OF_ASC_NODE>227.0721</RA_OF_ASC_NODE><ARG_OF_PERICENTER>219.8859</ARG_OF_PERICENTER><MEAN_ANOMALY>280.5447</MEAN_ANOMALY></meanElements><tleParameters><EPHEMERIS_TYPE>0</EPHEMERIS_TYPE><CLASSIFICATION_TYPE>U</CLASSIFICATION_TYPE><NORAD_CAT_ID>25963</NORAD_CAT_ID><ELEMENT_SET_NO>999</ELEMENT_SET_NO><REV_AT_EPOCH>13133</REV_AT_EPOCH><BSTAR>.65806E-4</BSTAR><MEAN_MOTION_DOT>-.81E-6</MEAN_MOTION_DOT><MEAN_MOTION_DDOT>0</MEAN_MOTION_DDOT></tleParameters></data></segment></body></omm>
<omm id="CCSDS_OMM_VERS" version="2.0">
<header><CREATION_DATE/><ORIGINATOR/></header><body><segment><metadata><OBJECT_NAME>GLOBALSTAR M061</OBJECT_NAME><OBJECT_ID>1999-062D</OBJECT_ID><CENTER_NAME>EARTH</CENTER_NAME><REF_FRAME>TEME</REF_FRAME><TIME_SYSTEM>UTC</TIME_SYSTEM><MEAN_ELEMENT_THEORY>SGP4</MEAN_ELEMENT_THEORY></metadata><data><meanElements><EPOCH>2024-08-06T14:19:23.052576</EPOCH><MEAN_MOTION>11.76763369</MEAN_MOTION><ECCENTRICITY>.0006298</ECCENTRICITY><INCLINATION>51.9797</INCLINATION><RA_OF_ASC_NODE>288.9987</RA_OF_ASC_NODE><ARG_OF_PERICENTER>97.0988</ARG_OF_PERICENTER><MEAN_ANOMALY>4.2433</MEAN_ANOMALY></meanElements><tleParameters><EPHEMERIS_TYPE>0</EPHEMERIS_TYPE><CLASSIFICATION_TYPE>U</CLASSIFICATION_TYPE><NORAD_CAT_ID>25964</NORAD_CAT_ID><ELEMENT_SET_NO>999</ELEMENT_SET_NO><REV_AT_EPOCH>8414</REV_AT_EPOCH><BSTAR>.48533E-3</BSTAR><MEAN_MOTION_DOT>-.51E-6</MEAN_MOTION_DOT><MEAN_MOTION_DDOT>0</MEAN_MOTION_DDOT></tleParameters></data></segment></body></omm>

</ndm>
