GLOBALSTAR M057         
1 25943U 99058A   24219.51787383 -.00000087  00000+0  55616-4 0  9996
2 25943  51.9969 161.2090 0002499  77.5645 282.5484 12.24790803128371
GLOBALSTAR M059         
1 25944U 99058B   24219.63236009 -.00000137  00000+0 -63114-3 0  9992
2 25944  52.0046 338.1360 0000889  91.0055 282.3701 11.99965123536285
GLOBALSTAR M031         
1 25946U 99058D   24219.62285135  .00000057  00000+0  14971-2 0  9992
2 25946  51.9944 259.3579 0001420 248.9964 287.3213 12.16012999126273
GLOBALSTAR M039         
1 25961U 99062A   24219.49972830 -.00000066  00000+0  21298-3 0  9996
2 25961  51.9838 147.1726 0003195  14.5460 345.5498 12.62298786140470
GLOBALSTAR M034         
1 25962U 99062B   24219.21438354  .00000026  00000+0  16936-2 0  9992
2 25962  51.9870 110.1246 0013610 164.0873 345.4334 11.79430555101223
GLOBALSTAR M029         
1 25963U 99062C   24219.39968403 -.00000081  00000+0  65806-4 0  9999
2 25963  51.9770 227.0721 0002638 219.8859 280.5447 11.99881466131332
GLOBALSTAR M061         
1 25964U 99062D   24219.59679459 -.00000051  00000+0  48533-3 0  9996
2 25964  51.9797 288.9987 0006298  97.0988   4.2433 11.76763369 84145
